{
  "norad_id": 53433,
  "name": "STARLINK-4549",
  "history": [
    {
      "epoch": "2026-03-28T19:57:51.817536Z",
      "apogee_km": 540.8169775020851,
      "perigee_km": 538.703698223314,
      "latitude_deg": -1.2771084846836442e-06,
      "longitude_deg": -107.52495176667036,
      "height_km": 540.823662842792,
      "semi_major_axis_km": 6917.897337862699,
      "eccentricity": 0.00015274,
      "inclination_deg": 53.2198,
      "raan_deg": 18.1876,
      "arg_perigee_deg": 99.1252,
      "mean_anomaly_deg": 260.9913,
      "mean_motion_rev_day": 15.08834455
    },
    {
      "epoch": "2026-03-29T02:19:24.280320Z",
      "apogee_km": 540.8261828921286,
      "perigee_km": 538.681636710091,
      "latitude_deg": -2.482496277106821e-05,
      "longitude_deg": 155.63941354381453,
      "height_km": 540.8296209849445,
      "semi_major_axis_km": 6917.89090980111,
      "eccentricity": 0.000155,
      "inclination_deg": 53.22,
      "raan_deg": 16.9984,
      "arg_perigee_deg": 99.6619,
      "mean_anomaly_deg": 260.4548,
      "mean_motion_rev_day": 15.08836558
    },
    {
      "epoch": "2026-03-30T03:45:34.763904Z",
      "apogee_km": 540.8337361667918,
      "perigee_km": 538.6808874569551,
      "latitude_deg": 9.075855390771682e-06,
      "longitude_deg": 128.2933283062797,
      "height_km": 540.7422514377378,
      "semi_major_axis_km": 6917.894311811873,
      "eccentricity": 0.0001556,
      "inclination_deg": 53.2207,
      "raan_deg": 12.2406,
      "arg_perigee_deg": 94.7509,
      "mean_anomaly_deg": 265.3661,
      "mean_motion_rev_day": 15.08835445
    },
    {
      "epoch": "2026-03-30T11:42:30.179520Z",
      "apogee_km": 540.7976589941136,
      "perigee_km": 538.6895040656991,
      "latitude_deg": 1.835347569852169e-05,
      "longitude_deg": 7.248894586158529,
      "height_km": 540.6494429224898,
      "semi_major_axis_km": 6917.8805815299065,
      "eccentricity": 0.00015237,
      "inclination_deg": 53.2207,
      "raan_deg": 10.7535,
      "arg_perigee_deg": 90.5455,
      "mean_anomaly_deg": 269.5712,
      "mean_motion_rev_day": 15.08839937
    },
    {
      "epoch": "2026-03-31T11:33:17.046720Z",
      "apogee_km": 540.7276930970756,
      "perigee_km": 538.721513232158,
      "latitude_deg": 5.121777788164464e-05,
      "longitude_deg": 4.112005410343729,
      "height_km": 540.4336232668911,
      "semi_major_axis_km": 6917.861603164616,
      "eccentricity": 0.000145,
      "inclination_deg": 53.2196,
      "raan_deg": 6.2912,
      "arg_perigee_deg": 79.2658,
      "mean_anomaly_deg": 280.8498,
      "mean_motion_rev_day": 15.08846146
    },
    {
      "epoch": "2026-04-01T11:24:04.930848Z",
      "apogee_km": 540.70179590921,
      "perigee_km": 538.800760210399,
      "latitude_deg": 1.3420633385949915e-05,
      "longitude_deg": 0.9732149450127955,
      "height_km": 540.4711935470931,
      "semi_major_axis_km": 6917.888278059804,
      "eccentricity": 0.0001374,
      "inclination_deg": 53.2191,
      "raan_deg": 1.8313,
      "arg_perigee_deg": 79.3303,
      "mean_anomaly_deg": 280.7844,
      "mean_motion_rev_day": 15.08837419
    },
    {
      "epoch": "2026-04-02T11:14:50.794944Z",
      "apogee_km": 540.5655126461734,
      "perigee_km": 538.8468436869898,
      "latitude_deg": -6.293734971398852e-05,
      "longitude_deg": -2.1581646849455143,
      "height_km": 540.4702649071697,
      "semi_major_axis_km": 6917.843178166581,
      "eccentricity": 0.00012422,
      "inclination_deg": 53.2191,
      "raan_deg": 357.3704,
      "arg_perigee_deg": 81.164,
      "mean_anomaly_deg": 278.9492,
      "mean_motion_rev_day": 15.08852174
    },
    {
      "epoch": "2026-04-03T20:37:58.220832Z",
      "apogee_km": 540.5079167697932,
      "perigee_km": 539.0233348662914,
      "latitude_deg": -2.8469220135675908e-06,
      "longitude_deg": -150.55665040011615,
      "height_km": 540.5643000846752,
      "semi_major_axis_km": 6917.902625818042,
      "eccentricity": 0.0001073,
      "inclination_deg": 53.2211,
      "raan_deg": 351.1239,
      "arg_perigee_deg": 82.4267,
      "mean_anomaly_deg": 277.6847,
      "mean_motion_rev_day": 15.08832725
    },
    {
      "epoch": "2026-04-03T23:48:44.542944Z",
      "apogee_km": 540.57919009957,
      "perigee_km": 538.9465657283827,
      "latitude_deg": -4.325389673357332e-06,
      "longitude_deg": 161.02546087266296,
      "height_km": 540.7186792925494,
      "semi_major_axis_km": 6917.899877913976,
      "eccentricity": 0.000118,
      "inclination_deg": 53.2213,
      "raan_deg": 350.5296,
      "arg_perigee_deg": 94.1751,
      "mean_anomaly_deg": 265.9376,
      "mean_motion_rev_day": 15.08833624
    },
    {
      "epoch": "2026-04-05T09:11:49.863264Z",
      "apogee_km": 540.6354359167162,
      "perigee_km": 538.8769074724714,
      "latitude_deg": 3.216356952722719e-05,
      "longitude_deg": 12.638852884685983,
      "height_km": 540.7022166725876,
      "semi_major_axis_km": 6917.893171694594,
      "eccentricity": 0.0001271,
      "inclination_deg": 53.221,
      "raan_deg": 344.2862,
      "arg_perigee_deg": 93.2493,
      "mean_anomaly_deg": 266.8645,
      "mean_motion_rev_day": 15.08835818
    },
    {
      "epoch": "2026-04-05T20:19:32.250720Z",
      "apogee_km": 540.7071541679161,
      "perigee_km": 538.8448519874873,
      "latitude_deg": -3.7544031285144693e-05,
      "longitude_deg": -156.82514299893776,
      "height_km": 540.9073683007072,
      "semi_major_axis_km": 6917.913003077701,
      "eccentricity": 0.0001346,
      "inclination_deg": 53.2206,
      "raan_deg": 342.2059,
      "arg_perigee_deg": 104.6335,
      "mean_anomaly_deg": 255.4806,
      "mean_motion_rev_day": 15.0882933
    },
    {
      "epoch": "2026-04-05T20:19:32.251584Z",
      "apogee_km": 540.7073617053065,
      "perigee_km": 538.8446444500969,
      "latitude_deg": -4.0225419774346795e-05,
      "longitude_deg": -156.8251486022326,
      "height_km": 540.9074207313554,
      "semi_major_axis_km": 6917.913003077701,
      "eccentricity": 0.00013463,
      "inclination_deg": 53.2206,
      "raan_deg": 342.2059,
      "arg_perigee_deg": 104.6335,
      "mean_anomaly_deg": 255.4806,
      "mean_motion_rev_day": 15.0882933
    },
    {
      "epoch": "2026-04-07T08:53:24.377856Z",
      "apogee_km": 540.6602672752497,
      "perigee_km": 538.8149933963541,
      "latitude_deg": 1.432797482717032e-05,
      "longitude_deg": 6.367145498099335,
      "height_km": 540.7494118925435,
      "semi_major_axis_km": 6917.874630335802,
      "eccentricity": 0.00013337,
      "inclination_deg": 53.2202,
      "raan_deg": 335.367,
      "arg_perigee_deg": 97.2058,
      "mean_anomaly_deg": 262.9086,
      "mean_motion_rev_day": 15.08841884
    },
    {
      "epoch": "2026-04-08T15:05:43.972224Z",
      "apogee_km": 540.6190595516509,
      "perigee_km": 538.8829463784268,
      "latitude_deg": 2.3944833396685362e-05,
      "longitude_deg": -93.60508780002253,
      "height_km": 540.6987426523104,
      "semi_major_axis_km": 6917.888002965039,
      "eccentricity": 0.00012548,
      "inclination_deg": 53.2193,
      "raan_deg": 329.7169,
      "arg_perigee_deg": 93.4137,
      "mean_anomaly_deg": 266.6999,
      "mean_motion_rev_day": 15.08837509
    },
    {
      "epoch": "2026-04-09T21:18:03.523392Z",
      "apogee_km": 540.6066215407363,
      "perigee_km": 538.8840688367836,
      "latitude_deg": -5.35980049115105e-05,
      "longitude_deg": 166.42279465407117,
      "height_km": 540.682480289124,
      "semi_major_axis_km": 6917.882345188759,
      "eccentricity": 0.0001245,
      "inclination_deg": 53.2189,
      "raan_deg": 324.0668,
      "arg_perigee_deg": 92.7353,
      "mean_anomaly_deg": 267.3781,
      "mean_motion_rev_day": 15.0883936
    },
    {
      "epoch": "2026-04-10T00:28:49.623456Z",
      "apogee_km": 540.6326135556237,
      "perigee_km": 538.8407459150976,
      "latitude_deg": -3.9397933876488004e-05,
      "longitude_deg": 118.00564495129004,
      "height_km": 540.660874477545,
      "semi_major_axis_km": 6917.87367973536,
      "eccentricity": 0.00012951,
      "inclination_deg": 53.2186,
      "raan_deg": 323.4723,
      "arg_perigee_deg": 91.8078,
      "mean_anomaly_deg": 268.3062,
      "mean_motion_rev_day": 15.08842195
    },
    {
      "epoch": "2026-04-11T20:59:36.703104Z",
      "apogee_km": 540.5944204611442,
      "perigee_km": 538.8497364015648,
      "latitude_deg": -2.407059020143507e-05,
      "longitude_deg": 160.15530030456705,
      "height_km": 540.5604668222111,
      "semi_major_axis_km": 6917.859078431355,
      "eccentricity": 0.0001261,
      "inclination_deg": 53.2168,
      "raan_deg": 315.1462,
      "arg_perigee_deg": 86.2271,
      "mean_anomaly_deg": 273.8865,
      "mean_motion_rev_day": 15.08846972
    }
  ]
}